[{"OBJECT_NAME":"NUSAT-35 (WILLIAMINA)","OBJECT_ID":"2023-001AR","EPOCH":"2026-03-09T22:28:40.425600","MEAN_MOTION":15.3245616,"ECCENTRICITY":0.00136635,"INCLINATION":97.1993,"RA_OF_ASC_NODE":124.278,"ARG_OF_PERICENTER":97.0313,"MEAN_ANOMALY":263.2484,"EPHEMERIS_TYPE":0,"CLASSIFICATION_TYPE":"U","NORAD_CAT_ID":55048,"ELEMENT_SET_NO":999,"REV_AT_EPOCH":17719,"BSTAR":0.00053479647,"MEAN_MOTION_DOT":0.0001675,"MEAN_MOTION_DDOT":0},{"OBJECT_NAME":"STARLINK-32582","OBJECT_ID":"2024-216B","EPOCH":"2026-03-09T16:23:43.988064","MEAN_MOTION":15.27572071,"ECCENTRICITY":0.00016042,"INCLINATION":42.9967,"RA_OF_ASC_NODE":263.3647,"ARG_OF_PERICENTER":250.8388,"MEAN_ANOMALY":109.229,"EPHEMERIS_TYPE":0,"CLASSIFICATION_TYPE":"U","NORAD_CAT_ID":62033,"ELEMENT_SET_NO":999,"REV_AT_EPOCH":7379,"BSTAR":0.0011402446,"MEAN_MOTION_DOT":0.00031241,"MEAN_MOTION_DDOT":0}]
